{
  "type": "FeatureCollection",
  "features": [
    {
      "type": "Feature",
      "properties": {
        "norad_id": 46805,
        "name": "COSMOS 2547 (705K)",
        "group": "glo-ops",
        "lat": 2.101019819435603,
        "lon": -160.72027190924175,
        "alt_km": 19141.28840630852,
        "timestamp": "2025-12-25T07:41:09.984246+00:00",
        "meta_object_name": "COSMOS 2547 (705K)",
        "meta_object_id": "2020-075A",
        "meta_epoch": "2025-12-22T23:18:06.838272",
        "meta_mean_motion": 2.13100223,
        "meta_eccentricity": 0.00061117,
        "meta_inclination": 64.5968,
        "meta_ra_of_asc_node": 198.3547,
        "meta_arg_of_pericenter": 227.5721,
        "meta_mean_anomaly": 132.44,
        "meta_ephemeris_type": 0,
        "meta_classification_type": "U",
        "meta_norad_cat_id": 46805,
        "meta_element_set_no": 999,
        "meta_rev_at_epoch": 4015,
        "meta_bstar": 0,
        "meta_mean_motion_dot": 9.5e-07,
        "meta_mean_motion_ddot": 0,
        "tle_line1": "1 46805U 20075A   25356.97091248  .00000095  00000+0  00000+0 0  9990",
        "tle_line2": "2 46805  64.5968 198.3547 0006111 227.5721 132.4400  2.13100223 40153"
      },
      "geometry": {
        "type": "Point",
        "coordinates": [
          -160.72027190924175,
          2.101019819435603
        ]
      }
    },
    {
      "type": "Feature",
      "properties": {
        "norad_id": 52984,
        "name": "COSMOS 2557 (706K)",
        "group": "glo-ops",
        "lat": -47.903918538524074,
        "lon": 172.61536740075098,
        "alt_km": 19110.27782515693,
        "timestamp": "2025-12-25T07:41:09.984257+00:00",
        "meta_object_name": "COSMOS 2557 (706K)",
        "meta_object_id": "2022-075A",
        "meta_epoch": "2025-12-24T01:47:30.472800",
        "meta_mean_motion": 2.13102037,
        "meta_eccentricity": 0.00135405,
        "meta_inclination": 64.4034,
        "meta_ra_of_asc_node": 320.6533,
        "meta_arg_of_pericenter": 278.4608,
        "meta_mean_anomaly": 81.3862,
        "meta_ephemeris_type": 0,
        "meta_classification_type": "U",
        "meta_norad_cat_id": 52984,
        "meta_element_set_no": 999,
        "meta_rev_at_epoch": 2698,
        "meta_bstar": 0,
        "meta_mean_motion_dot": -3.6e-07,
        "meta_mean_motion_ddot": 0,
        "tle_line1": "1 52984U 22075A   25358.07465825 -.00000036  00000+0  00000+0 0  9992",
        "tle_line2": "2 52984  64.4034 320.6533 0013540 278.4608  81.3862  2.13102037 26983"
      },
      "geometry": {
        "type": "Point",
        "coordinates": [
          172.61536740075098,
          -47.903918538524074
        ]
      }
    },
    {
      "type": "Feature",
      "properties": {
        "norad_id": 54031,
        "name": "COSMOS 2559 (707K)",
        "group": "glo-ops",
        "lat": 12.809971767667909,
        "lon": -33.0553530716575,
        "alt_km": 19158.11836734162,
        "timestamp": "2025-12-25T07:41:09.984268+00:00",
        "meta_object_name": "COSMOS 2559 (707K)",
        "meta_object_id": "2022-130A",
        "meta_epoch": "2025-12-22T22:55:41.357856",
        "meta_mean_motion": 2.13101293,
        "meta_eccentricity": 0.00115202,
        "meta_inclination": 64.3764,
        "meta_ra_of_asc_node": 320.7818,
        "meta_arg_of_pericenter": 191.7582,
        "meta_mean_anomaly": 168.2129,
        "meta_ephemeris_type": 0,
        "meta_classification_type": "U",
        "meta_norad_cat_id": 54031,
        "meta_element_set_no": 999,
        "meta_rev_at_epoch": 2493,
        "meta_bstar": 0,
        "meta_mean_motion_dot": -4e-07,
        "meta_mean_motion_ddot": 0,
        "tle_line1": "1 54031U 22130A   25356.95533979 -.00000040  00000+0  00000+0 0  9995",
        "tle_line2": "2 54031  64.3764 320.7818 0011520 191.7582 168.2129  2.13101293 24935"
      },
      "geometry": {
        "type": "Point",
        "coordinates": [
          -33.0553530716575,
          12.809971767667909
        ]
      }
    },
    {
      "type": "Feature",
      "properties": {
        "norad_id": 54377,
        "name": "COSMOS 2564 (761)",
        "group": "glo-ops",
        "lat": 40.75660817566782,
        "lon": -5.539804308907011,
        "alt_km": 19117.70376188074,
        "timestamp": "2025-12-25T07:41:09.984280+00:00",
        "meta_object_name": "COSMOS 2564 (761)",
        "meta_object_id": "2022-161A",
        "meta_epoch": "2025-12-22T19:11:15.319968",
        "meta_mean_motion": 2.13102038,
        "meta_eccentricity": 0.00085475,
        "meta_inclination": 64.7388,
        "meta_ra_of_asc_node": 198.5646,
        "meta_arg_of_pericenter": 203.7096,
        "meta_mean_anomaly": 156.316,
        "meta_ephemeris_type": 0,
        "meta_classification_type": "U",
        "meta_norad_cat_id": 54377,
        "meta_element_set_no": 999,
        "meta_rev_at_epoch": 2387,
        "meta_bstar": 0,
        "meta_mean_motion_dot": 9.5e-07,
        "meta_mean_motion_ddot": 0,
        "tle_line1": "1 54377U 22161A   25356.79948287  .00000095  00000+0  00000+0 0  9995",
        "tle_line2": "2 54377  64.7388 198.5646 0008547 203.7096 156.3160  2.13102038 23876"
      },
      "geometry": {
        "type": "Point",
        "coordinates": [
          -5.539804308907011,
          40.75660817566782
        ]
      }
    },
    {
      "type": "Feature",
      "properties": {
        "norad_id": 57517,
        "name": "COSMOS 2569 (703K)",
        "group": "glo-ops",
        "lat": 49.199298124483555,
        "lon": -133.83176849402517,
        "alt_km": 19150.871506416035,
        "timestamp": "2025-12-25T07:41:09.984291+00:00",
        "meta_object_name": "COSMOS 2569 (703K)",
        "meta_object_id": "2023-114A",
        "meta_epoch": "2025-12-23T18:01:56.220096",
        "meta_mean_motion": 2.13103974,
        "meta_eccentricity": 0.00109355,
        "meta_inclination": 65.1997,
        "meta_ra_of_asc_node": 78.5414,
        "meta_arg_of_pericenter": 287.1018,
        "meta_mean_anomaly": 72.827,
        "meta_ephemeris_type": 0,
        "meta_classification_type": "U",
        "meta_norad_cat_id": 57517,
        "meta_element_set_no": 999,
        "meta_rev_at_epoch": 1852,
        "meta_bstar": 0,
        "meta_mean_motion_dot": 1e-08,
        "meta_mean_motion_ddot": 0,
        "tle_line1": "1 57517U 23114A   25357.75134514  .00000001  00000+0  00000+0 0  9997",
        "tle_line2": "2 57517  65.1997  78.5414 0010935 287.1018  72.8270  2.13103974 18520"
      },
      "geometry": {
        "type": "Point",
        "coordinates": [
          -133.83176849402517,
          49.199298124483555
        ]
      }
    },
    {
      "type": "Feature",
      "properties": {
        "norad_id": 63130,
        "name": "COSMOS 2584 (704K)",
        "group": "glo-ops",
        "lat": -27.44672543213676,
        "lon": -87.25443403120127,
        "alt_km": 19114.116673043387,
        "timestamp": "2025-12-25T07:41:09.984302+00:00",
        "meta_object_name": "COSMOS 2584 (704K)",
        "meta_object_id": "2025-042A",
        "meta_epoch": "2025-12-24T02:34:25.549824",
        "meta_mean_motion": 2.13102981,
        "meta_eccentricity": 0.00077651,
        "meta_inclination": 64.9819,
        "meta_ra_of_asc_node": 78.7588,
        "meta_arg_of_pericenter": 220.6893,
        "meta_mean_anomaly": 139.3012,
        "meta_ephemeris_type": 0,
        "meta_classification_type": "U",
        "meta_norad_cat_id": 63130,
        "meta_element_set_no": 999,
        "meta_rev_at_epoch": 631,
        "meta_bstar": 0,
        "meta_mean_motion_dot": 1e-08,
        "meta_mean_motion_ddot": 0,
        "tle_line1": "1 63130U 25042A   25358.10724016  .00000001  00000+0  00000+0 0  9999",
        "tle_line2": "2 63130  64.9819  78.7588 0007765 220.6893 139.3012  2.13102981  6316"
      },
      "geometry": {
        "type": "Point",
        "coordinates": [
          -87.25443403120127,
          -27.44672543213676
        ]
      }
    },
    {
      "type": "Feature",
      "properties": {
        "norad_id": 65590,
        "name": "COSMOS 2596 (708K)",
        "group": "glo-ops",
        "lat": -27.768008017080895,
        "lon": -53.36249282335594,
        "alt_km": 19100.363742272715,
        "timestamp": "2025-12-25T07:41:09.984313+00:00",
        "meta_object_name": "COSMOS 2596 (708K)",
        "meta_object_id": "2025-206B",
        "meta_epoch": "2025-12-24T10:04:00.075648",
        "meta_mean_motion": 2.13100293,
        "meta_eccentricity": 0.00140917,
        "meta_inclination": 64.738,
        "meta_ra_of_asc_node": 321.0695,
        "meta_arg_of_pericenter": 307.5813,
        "meta_mean_anomaly": 50.2886,
        "meta_ephemeris_type": 0,
        "meta_classification_type": "U",
        "meta_norad_cat_id": 65590,
        "meta_element_set_no": 999,
        "meta_rev_at_epoch": 218,
        "meta_bstar": 0,
        "meta_mean_motion_dot": -3.5e-07,
        "meta_mean_motion_ddot": 0,
        "tle_line1": "1 65590U 25206B   25358.41944532 -.00000035  00000+0  00000+0 0  9992",
        "tle_line2": "2 65590  64.7380 321.0695 0014091 307.5813  50.2886  2.13100293  2184"
      },
      "geometry": {
        "type": "Point",
        "coordinates": [
          -53.36249282335594,
          -27.768008017080895
        ]
      }
    }
  ]
}